[{"OBJECT_NAME":"STARLINK-6171","OBJECT_ID":"2023-083H","EPOCH":"2026-03-09T01:36:25.175520","MEAN_MOTION":15.02531366,"ECCENTRICITY":8.97e-5,"INCLINATION":43.0075,"RA_OF_ASC_NODE":85.4284,"ARG_OF_PERICENTER":256.5724,"MEAN_ANOMALY":103.5019,"EPHEMERIS_TYPE":0,"CLASSIFICATION_TYPE":"U","NORAD_CAT_ID":56883,"ELEMENT_SET_NO":999,"REV_AT_EPOCH":15157,"BSTAR":8.2376586e-5,"MEAN_MOTION_DOT":9.09e-6,"MEAN_MOTION_DDOT":0},{"OBJECT_NAME":"FENGYUN 1C DEB","OBJECT_ID":"1999-025CHJ","EPOCH":"2026-03-08T11:31:09.458976","MEAN_MOTION":14.95691878,"ECCENTRICITY":0.01420749,"INCLINATION":98.9647,"RA_OF_ASC_NODE":255.4325,"ARG_OF_PERICENTER":95.8243,"MEAN_ANOMALY":265.919,"EPHEMERIS_TYPE":0,"CLASSIFICATION_TYPE":"U","NORAD_CAT_ID":31820,"ELEMENT_SET_NO":999,"REV_AT_EPOCH":99536,"BSTAR":0.0019551569,"MEAN_MOTION_DOT":0.00026677,"MEAN_MOTION_DDOT":0}]
